BEIDOU-2 IGSO-1 (C06)   
1 36828U 10036A   26011.95550745 -.00000064  00000+0  00000+0 0  9996
2 36828  54.2867 164.3748 0052197 216.6056 182.1295  1.00269570 56531
BEIDOU-2 G4 (C04)       
1 37210U 10057A   26012.83692258 -.00000097  00000+0  00000+0 0  9995
2 37210   3.2617  69.8252 0010284 200.0166 303.7933  1.00270950 55738
BEIDOU-2 IGSO-2 (C07)   
1 37256U 10068A   26012.74123698 -.00000189  00000+0  00000+0 0  9996
2 37256  47.8251 273.7629 0047330 215.4995 358.1814  1.00276656 55238
BEIDOU-2 IGSO-3 (C08)   
1 37384U 11013A   26012.71730182 -.00000162  00000+0  00000+0 0  9999
2 37384  62.1864  41.6176 0034412 189.7580 245.5467  1.00263444 54108
BEIDOU-2 IGSO-4 (C09)   
1 37763U 11038A   26011.90625980  .00000011  00000+0  00000+0 0  9998
2 37763  54.5902 167.0773 0150861 230.3561 135.2151  1.00276171 53084
BEIDOU-2 IGSO-5 (C10)   
1 37948U 11073A   26012.68126750 -.00000160  00000+0  00000+0 0  9995
2 37948  47.9602 273.4743 0108904 222.0129 316.3897  1.00284608 51575
BEIDOU-2 G5 (C05)       
1 38091U 12008A   26012.81681578  .00000071  00000+0  00000+0 0  9993
2 38091   3.1867  70.5952 0013603 236.5989 157.9310  1.00275571 50819
BEIDOU-2 M3 (C11)       
1 38250U 12018A   26011.93389412 -.00000102  00000+0  00000+0 0  9991
2 38250  55.8931 310.1421 0023519 276.6451  83.0965  1.86229819 93036
BEIDOU-2 M4 (C12)       
1 38251U 12018B   26010.25511062 -.00000101  00000+0  00000+0 0  9993
2 38251  55.7959 309.4256 0014732 281.3357  78.5095  1.86229473 93004
BEIDOU-2 M6 (C14)       
1 38775U 12050B   26012.65058744 -.00000071  00000+0  00000+0 0  9995
2 38775  56.4050  68.0409 0012191 341.1199  18.8913  1.86230958 90417
BEIDOU-2 G6 (C02)       
1 38953U 12059A   26012.75056593 -.00000161  00000+0  00000+0 0  9993
2 38953   4.0282  75.2037 0009021 294.2423  97.0130  1.00271888 48353
BEIDOU-3S IGSO-1S (C31) 
1 40549U 15019A   26012.75273260 -.00000187  00000+0  00000+0 0  9996
2 40549  49.4896 297.3388 0035679 192.9450 348.5607  1.00286533 39513
BEIDOU-3S M2S (C58)     
1 40748U 15037A   26012.07083529 -.00000099  00000+0  00000+0 0  9991
2 40748  55.0105 307.4214 0011147 273.7594  86.1256  1.86231878 71216
BEIDOU-3S M1S (C57)     
1 40749U 15037B   26011.22338308 -.00000101  00000+0  00000+0 0  9990
2 40749  55.0078 307.4405 0003943   9.0022 351.0173  1.86254058 71205
BEIDOU-3S IGSO-2S (C56) 
1 40938U 15053A   26011.60201819 -.00000108  00000+0  00000+0 0  9993
2 40938  49.4611 260.6486 0060689 188.1566 334.2078  1.00263521 37789
BEIDOU-2 IGSO-6 (C13)   
1 41434U 16021A   26012.03917002 -.00000142  00000+0  00000+0 0  9995
2 41434  60.0089  39.5912 0061045 231.6248 308.9070  1.00288091 35916
BEIDOU-2 G7 (C03)       
1 41586U 16037A   26012.82712918 -.00000337  00000+0  00000+0 0  9992
2 41586   1.8330  68.1171 0005686 359.1585  93.3447  1.00269617  5339
BEIDOU-3 M1 (C19)       
1 43001U 17069A   26011.34214611 -.00000076  00000+0  00000+0 0  9995
2 43001  56.5525  68.2542 0010683 303.3129  56.6395  1.86231348 55688
BEIDOU-3 M2 (C20)       
1 43002U 17069B   26011.28055558 -.00000076  00000+0  00000+0 0  9992
2 43002  56.5519  68.2927 0007624 326.9335  33.0734  1.86230851 55673
BEIDOU-3 M7 (C27)       
1 43107U 18003A   26012.09708269 -.00000100  00000+0  00000+0 0  9999
2 43107  54.4683 307.7584 0003381  66.3776 293.6700  1.86232361 54447
BEIDOU-3 M8 (C28)       
1 43108U 18003B   26012.04223201 -.00000100  00000+0  00000+0 0  9993
2 43108  54.4612 307.7430 0004225 283.1889  76.7762  1.86230813 54451
BEIDOU-3 M4 (C22)       
1 43207U 18018A   26011.41039900 -.00000076  00000+0  00000+0 0  9992
2 43207  56.5114  68.3213 0004861 353.5184   6.5299  1.86231206 53829
BEIDOU-3 M3 (C21)       
1 43208U 18018B   26012.55079228 -.00000072  00000+0  00000+0 0  9992
2 43208  56.5119  68.2878 0008090 313.2894  46.6992  1.86231464 53843
BEIDOU-3 M9 (C29)       
1 43245U 18029A   26011.15643758 -.00000100  00000+0  00000+0 0  9997
2 43245  54.3373 305.4412 0001224 311.3491  48.6555  1.86228393 52973
BEIDOU-3 M10 (C30)      
1 43246U 18029B   26012.16547057 -.00000097  00000+0  00000+0 0  9990
2 43246  54.3339 305.4336 0004713  10.0755 349.9488  1.86229117 52970
BEIDOU-2 IGSO-7 (C16)   
1 43539U 18057A   26005.15661572 -.00000100  00000+0  00000+0 0  9991
2 43539  55.1801 164.4661 0093553 235.1954 230.6715  1.00249884 27490
BEIDOU-3 M5 (C23)       
1 43581U 18062A   26008.09424663  .00000072  00000+0  00000+0 0  9995
2 43581  54.0901 187.7461 0001837 358.0209   1.9722  1.86228662 50650
BEIDOU-3 M6 (C24)       
1 43582U 18062B   26009.56805175  .00000090  00000+0  00000+0 0  9990
2 43582  54.0895 187.6849 0007739  49.1932 310.8712  1.86229621 50680
BEIDOU-3 M12 (C26)      
1 43602U 18067A   26011.65401282  .00000104  00000+0  00000+0 0  9998
2 43602  54.1840 186.3476 0009189  42.0268 318.0437  1.86227753 50207
BEIDOU-3 M11 (C25)      
1 43603U 18067B   26009.10379800  .00000085  00000+0  00000+0 0  9994
2 43603  54.1816 186.3984 0005573  38.6213 321.4126  1.86227115 50181
BEIDOU-3 M13 (C32)      
1 43622U 18072A   26011.74495846 -.00000075  00000+0  00000+0 0  9993
2 43622  56.4851  67.8259 0007253 300.0525  59.9306  1.86230891 49741
BEIDOU-3 M14 (C33)      
1 43623U 18072B   26012.14737750 -.00000074  00000+0  00000+0 0  9991
2 43623  56.4874  67.8068 0004431 324.6923  35.3339  1.86230953 49747
BEIDOU-3 M16 (C35)      
1 43647U 18078A   26011.76785292 -.00000099  00000+0  00000+0 0  9991
2 43647  54.2332 305.4711 0007815  22.9506 337.0990  1.86232417 49245
BEIDOU-3 M15 (C34)      
1 43648U 18078B   26011.89710632 -.00000099  00000+0  00000+0 0  9992
2 43648  54.2289 305.4667 0004404  24.6697 335.3662  1.86232040 49269
BEIDOU-3 G1 (C59)       
1 43683U 18085A   26012.83293589 -.00000262  00000+0  00000+0 0  9993
2 43683   2.6857 101.9884 0001387  44.8392  45.4179  1.00270530 26505
BEIDOU-3 M17 (C36)      
1 43706U 18093A   26008.84261336  .00000081  00000+0  00000+0 0  9997
2 43706  54.1737 187.7010 0006017 306.7094  58.8513  1.86228429 48572
BEIDOU-3 M18 (C37)      
1 43707U 18093B   26011.91779752  .00000105  00000+0  00000+0 0  9993
2 43707  54.1744 187.5886 0006108 353.5486   6.4458  1.86226720 48621
BEIDOU-2 G8 (C01)       
1 44231U 19027A   26012.83380256 -.00000232  00000+0  00000+0 0  9995
2 44231   1.7407  74.7902 0009109 262.2533 219.9215  1.00268788 24528
BEIDOU-3 IGSO-2 (C39)   
1 44337U 19035A   26011.80155157 -.00000080  00000+0  00000+0 0  9998
2 44337  55.2321 160.2371 0037745 203.4696 154.8750  1.00261865 24091
BEIDOU-3 M24 (C46)      
1 44542U 19061A   26011.45149081  .00000105  00000+0  00000+0 0  9992
2 44542  54.4004 188.0129 0009511  26.6014 333.4498  1.86229181 42875
BEIDOU-3 M23 (C45)      
1 44543U 19061B   26011.58791154  .00000105  00000+0  00000+0 0  9991
2 44543  54.3999 187.9766 0005973  25.4678 338.6232  1.86227672 42881
BEIDOU-3 M22 (C44)      
1 44793U 19078A   26011.29134659 -.00000100  00000+0  00000+0 0  9991
2 44793  54.0801 305.3486 0006504  27.0294 333.0195  1.86231881 41721
BEIDOU-3 M21 (C43)      
1 44794U 19078B   26011.96665477 -.00000098  00000+0  00000+0 0  9999
2 44794  54.0528 305.2891 0004612  17.9169 342.1144  1.86227658 41748
BEIDOU-3 M19 (C41)      
1 44864U 19090A   26012.74397922 -.00000071  00000+0  00000+0 0  9996
2 44864  56.4200  67.9320 0019301 286.6362  70.5811  1.86231720 41332
BEIDOU-3 M20 (C42)      
1 44865U 19090B   26012.71898816 -.00000071  00000+0  00000+0 0  9992
2 44865  56.4216  67.9672 0016441 298.2127 131.8624  1.86231706 41326
BEIDOU-3 G2 (C60)       
1 45344U 20017A   26012.82106248 -.00000124  00000+0  00000+0 0  9998
2 45344   2.5558  44.5818 0002290 257.2104 186.1185  1.00272602 21701
BEIDOU-3 G3 (C61)       
1 45807U 20040A   26012.25644470 -.00000338  00000+0  00000+0 0  9996
2 45807   2.0655  66.8592 0003827 298.4424 309.2064  1.00269242 20500
BEIDOU-3 G4 (C62)       
1 56564U 23066A   26012.83692258 -.00000093  00000+0  00000+0 0  9998
2 56564   0.7479 304.8276 0001854 217.1152  51.6479  1.00270809  9831
BEIDOU-3 M28 (C50)      
1 58654U 23207A   26012.58159530 -.00000073  00000+0  00000+0 0  9998
2 58654  55.6115  67.5564 0003649 283.6259  76.3890  1.86229830 13942
BEIDOU-3 M26 (C48)      
1 58655U 23207B   26011.30513241 -.00000077  00000+0  00000+0 0  9995
2 58655  55.6126  67.5859 0004813 268.9791  91.0197  1.86229978 13906
BEIDOU-3 M25 (C47)      
1 61186U 24168B   26012.35267591 -.00000099  00000+0  00000+0 0  9999
2 61186  54.6134 307.6587 0005158 306.4045 152.7616  1.86230279  8884
BEIDOU-3 M27 (C49)      
1 61187U 24168C   26012.11467672 -.00000100  00000+0  00000+0 0  9999
2 61187  54.6090 307.6505 0002719 353.5688  80.9916  1.86230434  6350
